ONEWEB-0098             
1 45442U 20020U   24277.90786802 -.00000176  00000+0 -53356-3 0  9995
2 45442  87.8941 144.8149 0001857  75.5040 284.6294 13.11418557221210
ONEWEB-0055             
1 45443U 20020V   24277.89345592 -.00000467  00000+0 -13524-2 0  9996
2 45443  87.8942 144.8198 0001696  80.0589 280.0730 13.11415852221193
ONEWEB-0093             
1 45444U 20020W   24277.56368624  .00000370  00000+0  10088-2 0  9995
2 45444  87.8938 144.8681 0001702  86.2143 273.9179 13.11416314221202
ONEWEB-0029             
1 45445U 20020X   24277.58231914 -.00000336  00000+0 -98251-3 0  9992
2 45445  87.8941 144.8778 0001495  84.8066 275.3233 13.11414260221183
ONEWEB-0068             
1 45446U 20020Y   24277.86294627  .00000612  00000+0  16913-2 0  9993
2 45446  87.8939 144.8079 0001574  82.3500 277.7807 13.11415373221177
ONEWEB-0046             
1 45447U 20020Z   24277.55522140  .00000598  00000+0  16516-2 0  9996
2 45447  87.8940 144.8809 0001346  73.9618 286.1658 13.11416783221134
ONEWEB-0063             
1 45448U 20020AA  24277.58404255 -.00000537  00000+0 -15524-2 0  9999
2 45448  87.8936 144.8754 0001437  70.1476 289.9806 13.11416844221225
ONEWEB-0019             
1 45449U 20020AB  24277.55860730  .00000487  00000+0  13384-2 0  9995
2 45449  87.8943 144.8877 0001734  73.4024 286.7294 13.11416167221061
